[{"OBJECT_NAME":"RADARSAT-2","OBJECT_ID":"2007-061A","EPOCH":"2026-03-09T23:01:05.689632","MEAN_MOTION":14.2996427,"ECCENTRICITY":0.00012561,"INCLINATION":98.582,"RA_OF_ASC_NODE":77.296,"ARG_OF_PERICENTER":84.478,"MEAN_ANOMALY":275.6546,"EPHEMERIS_TYPE":0,"CLASSIFICATION_TYPE":"U","NORAD_CAT_ID":32382,"ELEMENT_SET_NO":999,"REV_AT_EPOCH":95177,"BSTAR":-6.0240739e-5,"MEAN_MOTION_DOT":-1.99e-6,"MEAN_MOTION_DDOT":0},{"OBJECT_NAME":"CZ-4C DEB","OBJECT_ID":"2010-059C","EPOCH":"2026-03-08T01:35:25.918944","MEAN_MOTION":14.29380813,"ECCENTRICITY":0.00110265,"INCLINATION":98.6064,"RA_OF_ASC_NODE":148.505,"ARG_OF_PERICENTER":202.1641,"MEAN_ANOMALY":157.9065,"EPHEMERIS_TYPE":0,"CLASSIFICATION_TYPE":"U","NORAD_CAT_ID":38293,"ELEMENT_SET_NO":999,"REV_AT_EPOCH":79169,"BSTAR":7.322687e-5,"MEAN_MOTION_DOT":1.43e-6,"MEAN_MOTION_DDOT":0}]
